OBJECT_NAME,OBJECT_ID,EPOCH,MEAN_MOTION,ECCENTRICITY,INCLINATION,RA_OF_ASC_NODE,ARG_OF_PERICENTER,MEAN_ANOMALY,EPHEMERIS_TYPE,CLASSIFICATION_TYPE,NORAD_CAT_ID,ELEMENT_SET_NO,REV_AT_EPOCH,BSTAR,MEAN_MOTION_DOT,MEAN_MOTION_DDOT
COSMOS 2507 (RODNIK-S 13),2015-050A,2026-07-13T07:29:52.833984,12.42927172,.00090954,82.4915,63.4029,297.9155,62.1003,0,U,40920,999,49010,-.11356132E-3,-.6E-7,0
COSMOS 2508 (RODNIK-S 14),2015-050B,2026-07-13T06:25:27.856992,12.42914887,.00140205,82.4868,61.9258,331.2166,28.8139,0,U,40921,999,49008,.16959681E-3,.33E-6,0
COSMOS 2509 (RODNIK-S 15),2015-050C,2026-07-13T06:55:40.431360,12.42884405,.0014697,82.4876,62.0178,348.4006,11.6733,0,U,40922,999,49012,.13206022E-3,.28E-6,0
LINGQIAO VIDEO A,2015-057B,2026-07-13T07:13:44.709888,14.77426834,.00164857,97.6628,187.8165,179.0929,181.0315,0,U,40959,999,57926,.11298911E-3,.757E-5,0
LINGQIAO VIDEO B,2015-057C,2026-07-13T06:37:27.600960,14.77530781,.00166502,97.6593,188.9491,179.2941,180.8297,0,U,40960,999,57930,.73292119E-4,.476E-5,0
JILIN-1,2015-057D,2026-07-13T06:40:05.066688,14.78199696,.0017045,97.6519,192.3506,173.0479,187.0972,0,U,40961,999,57946,.65073181E-4,.424E-5,0
FOX-1A (AO-85),2015-058D,2026-07-13T07:25:39.339840,14.91081487,.0132199,64.7723,197.7955,46.5234,314.6780,0,U,40967,999,11746,.15967051E-3,.1693E-4,0
SINOD-D 1,2015-058E,2026-07-12T09:56:45.843936,14.96071501,.01208123,64.7730,179.9000,43.2193,317.8323,0,U,40968,999,12043,.23567524E-3,.2893E-4,0
ELEKTRO-L 2,2015-074A,2026-07-12T23:42:24.457248,1.00272232,.00009425,6.7552,70.2019,215.4440,346.3207,0,U,41105,999,3876,0,-.125E-5,0
DAMPE,2015-078A,2026-07-13T05:59:30.376896,15.30850949,.00117882,97.4562,199.8456,352.6055,7.5010,0,U,41173,999,58853,.31034006E-4,.848E-5,0
ORBCOMM FM110,2015-081D,2026-07-12T12:17:03.074496,14.58916062,.00034922,47.0008,241.6985,211.7770,148.2905,0,U,41182,999,56132,.72511838E-4,.172E-5,0
ORBCOMM FM112,2015-081F,2026-07-13T07:17:12.910560,14.58937084,.00038026,46.9979,146.7451,320.5231,39.5377,0,U,41184,999,56276,.10611747E-3,.331E-5,0
ORBCOMM FM113,2015-081G,2026-07-13T06:44:51.156960,14.58880972,.00023265,46.9998,147.2412,314.1982,45.8713,0,U,41185,999,56274,.64855204E-4,.135E-5,0
ORBCOMM FM108,2015-081J,2026-07-13T00:54:19.598976,14.58908772,.00027708,47.0053,59.9728,314.2400,45.8258,0,U,41187,999,56385,.97932067E-4,.292E-5,0
ORBCOMM FM117,2015-081K,2026-07-13T00:04:57.417312,14.58895854,.00031988,47.0016,58.7625,320.9684,39.0971,0,U,41188,999,56389,.93001181E-4,.268E-5,0
ORBCOMM FM116,2015-081L,2026-07-13T06:10:51.074112,14.58904456,.00015409,47.0013,147.3497,225.9507,134.1252,0,U,41189,999,56274,.5084903E-4,.69E-6,0
ZIYUAN 3-02 (ZY 3-02),2016-033A,2026-07-13T07:15:17.622720,15.21423086,.00138679,97.3832,269.5743,191.5238,168.5683,0,U,41556,999,56195,.13650311E-3,.3002E-4,0
CARTOSAT-2C,2016-040A,2026-07-13T06:35:25.022688,15.19255930,.00097119,97.4476,253.8913,51.5478,308.6627,0,U,41599,999,55767,.10365444E-3,.2119E-4,0
LAPAN-A3,2016-040E,2026-07-13T07:08:25.030752,15.33270300,.00082768,97.1503,189.5895,284.5908,75.4417,0,U,41603,999,55881,.63531028E-4,.1969E-4,0
GAOFEN-3,2016-049A,2026-07-13T07:24:43.877088,14.42218927,.00017918,98.4014,201.7005,86.1635,273.9759,0,U,41727,999,52241,.52558851E-4,.13E-5,0
CAS-2T & KS-1Q,2016-066G,2026-07-13T05:05:23.360352,14.44767960,.03423502,98.3814,269.6505,50.7667,312.3386,0,U,41847,999,50855,.94681853E-4,.617E-5,0
YUNHAI-1 01,2016-068A,2026-07-13T06:54:55.228608,14.32722017,.00033368,98.5848,205.0519,354.6354,5.4793,0,U,41857,999,50556,.1859747E-3,.462E-5,0
RESOURCESAT-2A,2016-074A,2026-07-13T07:45:44.693280,14.21608981,.00024954,98.7527,267.6129,33.3344,326.7990,0,U,41877,999,49801,.13049098E-3,.242E-5,0
TANSAT,2016-081A,2026-07-13T07:00:18.315360,14.59971016,.00193304,98.5368,195.3220,226.2824,133.6774,0,U,41898,999,50843,.73613285E-4,.303E-5,0
