COSMOS 2507 (RODNIK-S *)
1 40920U 15050A   26194.31241706 -.00000006  00000+0 -11356-3 0  9998
2 40920  82.4915  63.4029 0009095 297.9155  62.1003 12.42927172490104
COSMOS 2508 (RODNIK-S *)
1 40921U 15050B   26194.26768353  .00000033  00000+0  16960-3 0  9999
2 40921  82.4868  61.9258 0014020 331.2166  28.8139 12.42914887490082
COSMOS 2509 (RODNIK-S *)
1 40922U 15050C   26194.28866240  .00000028  00000+0  13206-3 0  9990
2 40922  82.4876  62.0178 0014697 348.4006  11.6733 12.42884405490125
LINGQIAO VIDEO A        
1 40959U 15057B   26194.30121192  .00000757  00000+0  11299-3 0  9999
2 40959  97.6628 187.8165 0016485 179.0929 181.0315 14.77426834579268
LINGQIAO VIDEO B        
1 40960U 15057C   26194.27601390  .00000476  00000+0  73292-4 0  9990
2 40960  97.6593 188.9491 0016650 179.2941 180.8297 14.77530781579303
JILIN-1                 
1 40961U 15057D   26194.27783642  .00000424  00000+0  65073-4 0  9993
2 40961  97.6519 192.3506 0017045 173.0479 187.0972 14.78199696579468
FOX-1A (AO-85)          
1 40967U 15058D   26194.30948310  .00001693  00000+0  15967-3 0  9994
2 40967  64.7723 197.7955 0132199  46.5234 314.6780 14.91081487117460
SINOD-D 1               
1 40968U 15058E   26193.41441949  .00002893  00000+0  23568-3 0  9991
2 40968  64.7730 179.9000 0120812  43.2193 317.8323 14.96071501120439
ELEKTRO-L 2             
1 41105U 15074A   26193.98778307 -.00000125  00000+0  00000+0 0  9995
2 41105   6.7552  70.2019 0000942 215.4440 346.3207  1.00272232 38760
DAMPE                   
1 41173U 15078A   26194.24965714  .00000848  00000+0  31034-4 0  9991
2 41173  97.4562 199.8456 0011788 352.6055   7.5010 15.30850949588530
ORBCOMM FM110           
1 41182U 15081D   26193.51184114  .00000172  00000+0  72512-4 0  9997
2 41182  47.0008 241.6985 0003492 211.7770 148.2905 14.58916062561323
ORBCOMM FM112           
1 41184U 15081F   26194.30362165  .00000331  00000+0  10612-3 0  9990
2 41184  46.9979 146.7451 0003802 320.5231  39.5377 14.58937084562760
ORBCOMM FM113           
1 41185U 15081G   26194.28114765  .00000135  00000+0  64855-4 0  9990
2 41185  46.9998 147.2412 0002326 314.1982  45.8713 14.58880972562742
ORBCOMM FM108           
1 41187U 15081J   26194.03772684  .00000292  00000+0  97932-4 0  9991
2 41187  47.0053  59.9728 0002770 314.2400  45.8258 14.58908772563852
ORBCOMM FM117           
1 41188U 15081K   26194.00344233  .00000268  00000+0  93001-4 0  9990
2 41188  47.0016  58.7625 0003198 320.9684  39.0971 14.58895854563895
ORBCOMM FM116           
1 41189U 15081L   26194.25753558  .00000069  00000+0  50849-4 0  9994
2 41189  47.0013 147.3497 0001540 225.9507 134.1252 14.58904456562743
ZIYUAN 3-02 (ZY 3-02)   
1 41556U 16033A   26194.30228730  .00003002  00000+0  13650-3 0  9993
2 41556  97.3832 269.5743 0013867 191.5238 168.5683 15.21423086561950
CARTOSAT-2C             
1 41599U 16040A   26194.27459517  .00002119  00000+0  10365-3 0  9991
2 41599  97.4476 253.8913 0009711  51.5478 308.6627 15.19255930557678
LAPAN-A3                
1 41603U 16040E   26194.29751193  .00001969  00000+0  63531-4 0  9990
2 41603  97.1503 189.5895 0008276 284.5908  75.4417 15.33270300558814
GAOFEN-3                
1 41727U 16049A   26194.30884117  .00000130  00000+0  52559-4 0  9998
2 41727  98.4014 201.7005 0001791  86.1635 273.9759 14.42218927522417
CAS-2T & KS-1Q          
1 41847U 16066G   26194.21207593  .00000617  00000+0  94682-4 0  9990
2 41847  98.3814 269.6505 0342350  50.7667 312.3386 14.44767960508557
YUNHAI-1 01             
1 41857U 16068A   26194.28813922  .00000462  00000+0  18597-3 0  9997
2 41857  98.5848 205.0519 0003336 354.6354   5.4793 14.32722017505564
RESOURCESAT-2A          
1 41877U 16074A   26194.32343395  .00000242  00000+0  13049-3 0  9996
2 41877  98.7527 267.6129 0002495  33.3344 326.7990 14.21608981498018
TANSAT                  
1 41898U 16081A   26194.29187865  .00000303  00000+0  73613-4 0  9993
2 41898  98.5368 195.3220 0019330 226.2824 133.6774 14.59971016508439
